HST                     
1 20580U 90037B   26153.34296606  .00005773  00000+0  18209-3 0  9991
2 20580  28.4711 182.0162 0001700 354.7953   5.2625 15.30586461786295
POLAR                   
1 23802U 96013A   26154.17285880  .00000117  00000+0  00000+0 0  9998
2 23802  79.8387 227.2170 6456542 209.5637  88.9587  1.29846107144679
SWAS                    
1 25560U 98071A   26154.63071686  .00004768  00000+0  30281-3 0  9999
2 25560  69.8969 262.4754 0008653 272.4126  87.6047 15.09525821495225
CXO                     
1 25867U 99040B   26156.15341265  .00000679  00000+0  00000+0 0  9997
2 25867  55.9514 117.0331 7855937 310.2940   0.1967  0.37796078 17275
XMM-NEWTON              
1 25989U 99066A   26153.38988298  .00000054  00000+0  00000+0 0  9992
2 25989  64.5660 283.1750 4678287  65.1499   0.1702  0.50127783 22933
TERRA                   
1 25994U 99068A   26154.86758086  .00000441  00000+0  98709-4 0  9992
2 25994  97.9462 204.9413 0000804 267.2150 147.1978 14.61091990407666
CLUSTER II-FM7 (SAMBA)  
1 26410U 00041A   26156.98399886  .00004453  00000+0  00000+0 0  9992
2 26410 149.8917  48.5803 9040965 265.6480   0.0292  0.44829937 20254
CLUSTER II-FM8 (TANGO)  
1 26464U 00045B   26150.42970564  .00004404  00000+0  00000+0 0  9992
2 26464 150.1271  48.5941 9036059 265.4393   3.5087  0.44418197 20234
ODIN                    
1 26702U 01007A   26154.61304034  .00157367  00000+0  12152-2 0  9995
2 26702  97.3861 194.7266 0005940 161.5590 198.5889 15.71427436387267
TIMED                   
1 26998U 01055B   26154.62706030  .00001612  00000+0  15003-3 0  9998
2 26998  74.0681 262.3202 0000349  13.3633 346.7560 14.95260030328794
CORIOLIS                
1 27640U 03001A   26154.59741162  .00000101  00000+0  68250-4 0  9992
2 27640  98.7126 161.6896 0012856 250.5610 109.4178 14.19940938212296
SORCE                   
1 27651U 03004A   26154.85644174  .00003243  00000+0  24288-3 0  9993
2 27651  39.9922 337.7306 0018459 313.4368  46.4890 15.03637038269892
MOST                    
1 27843U 03031D   26154.55430703  .00000084  00000+0  58380-4 0  9995
2 27843  98.7043 162.4703 0008771 294.8100  65.2165 14.21319607188777
SCISAT 1                
1 27858U 03036A   26154.58458824  .00000644  00000+0  86885-4 0  9996
2 27858  73.9292 198.3690 0008712 266.8660  93.1520 14.81433322229433
SWIFT                   
1 28485U 04047A   26151.76835454  .00063707  00000+0  56852-3 0  9990
2 28485  20.5544 311.3972 0003289  74.7681 285.3128 15.66645040184289
HINODE (SOLAR-B)        
1 29479U 06041A   26154.89958958  .00000858  00000+0  15587-3 0  9990
2 29479  98.0548 171.2481 0016725 334.8509  25.1880 14.68603120 52927
SHIJIAN-6 02A (SJ-6 02A)
1 29505U 06046A   26154.96409973  .00006832  00000+0  35129-3 0  9993
2 29505  97.6366 195.9318 0003449 154.8903 205.2498 15.16782438 70266
SHIJIAN-6 02B (SJ-6 02B)
1 29506U 06046B   26154.95012654  .00001396  00000+0  11290-3 0  9992
2 29506  97.7155 184.0899 0014231  99.3003 260.9832 15.01339889 68755
FGRST (GLAST)           
1 33053U 08029A   26154.80528131  .00004080  00000+0  15061-3 0  9996
2 33053  25.5832 297.3955 0008322 165.4580 194.6199 15.23873208993790
SDO                     
1 36395U 10005A   26154.33278793 -.00000074  00000+0  00000+0 0  9992
2 36395  34.6232  86.5527 0001321  44.7554 138.3260  1.00271499 59928
CRYOSAT 2               
1 36508U 10013A   26154.91773363  .00000147  00000+0  35871-4 0  9993
2 36508  92.0346 274.0772 0002272  86.1009 274.0458 14.51905217856154
X-SAT                   
1 37389U 11015C   26154.95670141  .00000078  00000+0  50465-4 0  9997
2 37389  98.3505 132.6110 0014777  26.4150 333.7781 14.25201951785798
GCOM-W1 (SHIZUKU)       
1 38337U 12025A   26154.44624096  .00000571  00000+0  13668-3 0  9996
2 38337  98.2019  95.2103 0001854  85.6943  27.7086 14.57110927747036
NUSTAR                  
1 38358U 12031A   26155.00002315  .00010031  00000+0  56719-3 0  9999
2 38358   6.0245 133.0422 0008938 272.5978 354.4003 15.08668192  1308
NEOSSAT                 
1 39089U 13009D   26154.48125319  .00000160  00000+0  70171-4 0  9999
2 39089  98.4174 334.8403 0009846 289.7111  70.3013 14.35821530694774
BRITE-AUSTRIA           
1 39091U 13009F   26154.48669444  .00000205  00000+0  84366-4 0  9995
2 39091  98.3992 334.2621 0008976 282.7802  77.2381 14.36536402695084
IRIS                    
1 39197U 13033A   26154.56188677  .00001255  00000+0  14978-3 0  9999
2 39197  97.9336 353.8816 0024600   7.1443 353.0118 14.85856512698350
HISAKI (SPRINT-A)       
1 39253U 13049A   26152.44124326  .00000151  00000+0  11299-3 0  9992
2 39253  29.7215 300.0649 0136907 249.2755 109.3095 13.55542806629285
CASSIOPE                
1 39265U 13055A   26154.83882978  .00040163 -59804-6  44548-3 0  9995
2 39265  80.9148  82.9142 0297070 107.1768 256.2216 15.23994824665635
STSAT-3                 
1 39422U 13066G   26154.92840368  .00004988  00000+0  37797-3 0  9998
2 39422  97.6206 125.0322 0010775  79.8852 280.3588 15.02671509682215
